CCSDS_OMM_VERS = 2.0
CREATION_DATE  = 
ORIGINATOR     = 

OBJECT_NAME    = 1998-067XK
OBJECT_ID      = 1998-067XK
CENTER_NAME    = EARTH
REF_FRAME      = TEME
TIME_SYSTEM    = UTC
MEAN_ELEMENT_THEORY = SGP/SGP4

EPOCH          = 2026-01-31T00:08:35.716416
MEAN_MOTION    = 15.80226512
ECCENTRICITY   = .00040004
INCLINATION    = 51.6232
RA_OF_ASC_NODE = 244.9901
ARG_OF_PERICENTER = 189.4791
MEAN_ANOMALY   = 170.6136

EPHEMERIS_TYPE = 0
CLASSIFICATION_TYPE = U
NORAD_CAT_ID   = 65731
ELEMENT_SET_NO = 999
REV_AT_EPOCH   = 2089
BSTAR          = .95988648E-3
MEAN_MOTION_DOT = .18767E-2
MEAN_MOTION_DDOT = 0

CCSDS_OMM_VERS = 2.0
CREATION_DATE  = 
ORIGINATOR     = 

OBJECT_NAME    = RSP-03
OBJECT_ID      = 1998-067XL
CENTER_NAME    = EARTH
REF_FRAME      = TEME
TIME_SYSTEM    = UTC
MEAN_ELEMENT_THEORY = SGP/SGP4

EPOCH          = 2026-01-30T20:03:12.729600
MEAN_MOTION    = 15.91475705
ECCENTRICITY   = .00053328
INCLINATION    = 51.6184
RA_OF_ASC_NODE = 243.0468
ARG_OF_PERICENTER = 212.7899
MEAN_ANOMALY   = 147.2777

EPHEMERIS_TYPE = 0
CLASSIFICATION_TYPE = U
NORAD_CAT_ID   = 65732
ELEMENT_SET_NO = 999
REV_AT_EPOCH   = 2091
BSTAR          = .12908576E-2
MEAN_MOTION_DOT = .424853E-2
MEAN_MOTION_DDOT = .79895939E-4

CCSDS_OMM_VERS = 2.0
CREATION_DATE  = 
ORIGINATOR     = 

OBJECT_NAME    = YOTSUBA-KULOVER
OBJECT_ID      = 1998-067XN
CENTER_NAME    = EARTH
REF_FRAME      = TEME
TIME_SYSTEM    = UTC
MEAN_ELEMENT_THEORY = SGP/SGP4

EPOCH          = 2026-01-30T23:47:29.210784
MEAN_MOTION    = 15.68698357
ECCENTRICITY   = .00043647
INCLINATION    = 51.6252
RA_OF_ASC_NODE = 250.9207
ARG_OF_PERICENTER = 193.6559
MEAN_ANOMALY   = 166.4320

EPHEMERIS_TYPE = 0
CLASSIFICATION_TYPE = U
NORAD_CAT_ID   = 65941
ELEMENT_SET_NO = 999
REV_AT_EPOCH   = 1756
BSTAR          = .79658801E-3
MEAN_MOTION_DOT = .93205E-3
MEAN_MOTION_DDOT = 0

CCSDS_OMM_VERS = 2.0
CREATION_DATE  = 
ORIGINATOR     = 

OBJECT_NAME    = BOTAN
OBJECT_ID      = 1998-067XP
CENTER_NAME    = EARTH
REF_FRAME      = TEME
TIME_SYSTEM    = UTC
MEAN_ELEMENT_THEORY = SGP/SGP4

EPOCH          = 2026-01-30T23:53:11.522400
MEAN_MOTION    = 15.79268787
ECCENTRICITY   = .00054468
INCLINATION    = 51.6191
RA_OF_ASC_NODE = 247.9181
ARG_OF_PERICENTER = 209.4507
MEAN_ANOMALY   = 150.6188

EPHEMERIS_TYPE = 0
CLASSIFICATION_TYPE = U
NORAD_CAT_ID   = 65942
ELEMENT_SET_NO = 999
REV_AT_EPOCH   = 1760
BSTAR          = .12151242E-2
MEAN_MOTION_DOT = .228767E-2
MEAN_MOTION_DDOT = 0

CCSDS_OMM_VERS = 2.0
CREATION_DATE  = 
ORIGINATOR     = 

OBJECT_NAME    = E-KAGAKU-1
OBJECT_ID      = 1998-067XQ
CENTER_NAME    = EARTH
REF_FRAME      = TEME
TIME_SYSTEM    = UTC
MEAN_ELEMENT_THEORY = SGP/SGP4

EPOCH          = 2026-01-30T23:47:57.165504
MEAN_MOTION    = 15.68632349
ECCENTRICITY   = .00032967
INCLINATION    = 51.6267
RA_OF_ASC_NODE = 250.9321
ARG_OF_PERICENTER = 204.5010
MEAN_ANOMALY   = 155.5830

EPHEMERIS_TYPE = 0
CLASSIFICATION_TYPE = U
NORAD_CAT_ID   = 65943
ELEMENT_SET_NO = 999
REV_AT_EPOCH   = 1756
BSTAR          = .80341497E-3
MEAN_MOTION_DOT = .93741E-3
MEAN_MOTION_DDOT = 0

CCSDS_OMM_VERS = 2.0
CREATION_DATE  = 
ORIGINATOR     = 

OBJECT_NAME    = HTV-X1
OBJECT_ID      = 2025-241A
CENTER_NAME    = EARTH
REF_FRAME      = TEME
TIME_SYSTEM    = UTC
MEAN_ELEMENT_THEORY = SGP/SGP4

EPOCH          = 2026-01-31T00:23:06.827136
MEAN_MOTION    = 15.48297710
ECCENTRICITY   = .00110987
INCLINATION    = 51.6322
RA_OF_ASC_NODE = 258.5893
ARG_OF_PERICENTER = 48.1305
MEAN_ANOMALY   = 312.0628

EPHEMERIS_TYPE = 0
CLASSIFICATION_TYPE = U
NORAD_CAT_ID   = 66174
ELEMENT_SET_NO = 999
REV_AT_EPOCH   = 51
BSTAR          = .15394496E-3
MEAN_MOTION_DOT = .7848E-4
MEAN_MOTION_DDOT = 0

CCSDS_OMM_VERS = 2.0
CREATION_DATE  = 
ORIGINATOR     = 

OBJECT_NAME    = SHENZHOU-22
OBJECT_ID      = 2025-272A
CENTER_NAME    = EARTH
REF_FRAME      = TEME
TIME_SYSTEM    = UTC
MEAN_ELEMENT_THEORY = SGP/SGP4

EPOCH          = 2026-01-30T04:06:26.862336
MEAN_MOTION    = 15.61350410
ECCENTRICITY   = .00090867
INCLINATION    = 41.4674
RA_OF_ASC_NODE = 82.2287
ARG_OF_PERICENTER = 36.5911
MEAN_ANOMALY   = 323.5548

EPHEMERIS_TYPE = 0
CLASSIFICATION_TYPE = U
NORAD_CAT_ID   = 66645
ELEMENT_SET_NO = 999
REV_AT_EPOCH   = 26764
BSTAR          = .3748084E-3
MEAN_MOTION_DOT = .3269E-3
MEAN_MOTION_DDOT = 0

CCSDS_OMM_VERS = 2.0
CREATION_DATE  = 
ORIGINATOR     = 

OBJECT_NAME    = SOYUZ-MS 28
OBJECT_ID      = 2025-275A
CENTER_NAME    = EARTH
REF_FRAME      = TEME
TIME_SYSTEM    = UTC
MEAN_ELEMENT_THEORY = SGP/SGP4

EPOCH          = 2026-01-31T00:23:06.827136
MEAN_MOTION    = 15.48297710
ECCENTRICITY   = .00110987
INCLINATION    = 51.6322
RA_OF_ASC_NODE = 258.5893
ARG_OF_PERICENTER = 48.1305
MEAN_ANOMALY   = 312.0628

EPHEMERIS_TYPE = 0
CLASSIFICATION_TYPE = U
NORAD_CAT_ID   = 66664
ELEMENT_SET_NO = 999
REV_AT_EPOCH   = 128
BSTAR          = .15394496E-3
MEAN_MOTION_DOT = .7848E-4
MEAN_MOTION_DDOT = 0

CCSDS_OMM_VERS = 2.0
CREATION_DATE  = 
ORIGINATOR     = 

OBJECT_NAME    = DUPLEX
OBJECT_ID      = 1998-067XS
CENTER_NAME    = EARTH
REF_FRAME      = TEME
TIME_SYSTEM    = UTC
MEAN_ELEMENT_THEORY = SGP/SGP4

EPOCH          = 2026-01-30T22:09:35.235936
MEAN_MOTION    = 15.53569248
ECCENTRICITY   = .0001559
INCLINATION    = 51.6299
RA_OF_ASC_NODE = 257.9730
ARG_OF_PERICENTER = 80.7038
MEAN_ANOMALY   = 279.4129

EPHEMERIS_TYPE = 0
CLASSIFICATION_TYPE = U
NORAD_CAT_ID   = 66906
ELEMENT_SET_NO = 999
REV_AT_EPOCH   = 925
BSTAR          = .44212E-3
MEAN_MOTION_DOT = .28303E-3
MEAN_MOTION_DDOT = 0

CCSDS_OMM_VERS = 2.0
CREATION_DATE  = 
ORIGINATOR     = 

OBJECT_NAME    = 1998-067XT
OBJECT_ID      = 1998-067XT
CENTER_NAME    = EARTH
REF_FRAME      = TEME
TIME_SYSTEM    = UTC
MEAN_ELEMENT_THEORY = SGP/SGP4

EPOCH          = 2026-01-31T00:19:31.717920
MEAN_MOTION    = 15.59761817
ECCENTRICITY   = .0002883
INCLINATION    = 51.6275
RA_OF_ASC_NODE = 256.3251
ARG_OF_PERICENTER = 157.7778
MEAN_ANOMALY   = 202.3340

EPHEMERIS_TYPE = 0
CLASSIFICATION_TYPE = U
NORAD_CAT_ID   = 66907
ELEMENT_SET_NO = 999
REV_AT_EPOCH   = 928
BSTAR          = .98231578E-3
MEAN_MOTION_DOT = .80538E-3
MEAN_MOTION_DDOT = 0

