1998-067XK              
1 65731U 98067XK  26031.00596894  .00187670  00000+0  95989-3 0  9996
2 65731  51.6232 244.9901 0004000 189.4791 170.6136 15.80226512 20890
RSP-03                  
1 65732U 98067XL  26030.83556400  .00424853  79896-4  12909-2 0  9997
2 65732  51.6184 243.0468 0005332 212.7899 147.2777 15.91475705 20919
YOTSUBA-KULOVER         
1 65941U 98067XN  26030.99131031  .00093205  00000+0  79659-3 0  9990
2 65941  51.6252 250.9207 0004364 193.6559 166.4320 15.68698357 17567
BOTAN                   
1 65942U 98067XP  26030.99527225  .00228767  00000+0  12151-2 0  9991
2 65942  51.6191 247.9181 0005446 209.4507 150.6188 15.79268787 17602
E-KAGAKU-1              
1 65943U 98067XQ  26030.99163386  .00093741  00000+0  80341-3 0  9995
2 65943  51.6267 250.9321 0003296 204.5010 155.5830 15.68632349 17563
HTV-X1                  
1 66174U 25241A   26031.01605124  .00007848  00000+0  15394-3 0  9990
2 66174  51.6322 258.5893 0011098  48.1305 312.0628 15.48297710   517
SHENZHOU-22             
1 66645U 25272A   26030.17114424  .00032690  00000+0  37481-3 0  9995
2 66645  41.4674  82.2287 0009086  36.5911 323.5548 15.61350410267643
SOYUZ-MS 28             
1 66664U 25275A   26031.01605124  .00007848  00000+0  15394-3 0  9991
2 66664  51.6322 258.5893 0011098  48.1305 312.0628 15.48297710  1286
DUPLEX                  
1 66906U 98067XS  26030.92332449  .00028303  00000+0  44212-3 0  9995
2 66906  51.6299 257.9730 0001559  80.7038 279.4129 15.53569248  9258
1998-067XT              
1 66907U 98067XT  26031.01356155  .00080538  00000+0  98232-3 0  9996
2 66907  51.6275 256.3251 0002883 157.7778 202.3340 15.59761817  9286
